start=new Date('2023-01-08T00:00:00.000Z').valueOf();
sats=[{"MEAN_MOTION_DOT":"0.00002280","ECCENTRICITY":"0.00014060","TLE_LINE2":"2 45774  53.0519 349.5157 0001406  84.0964 276.0186 15.06391132142400","FILE":"3735488","CLASSIFICATION_TYPE":"U","ARG_OF_PERICENTER":"84.0964","EPHEMERIS_TYPE":"0","MEAN_ELEMENT_THEORY":"SGP4","OBJECT_ID":"2020-038AW","REF_FRAME":"TEME","APOAPSIS":"548.214","REV_AT_EPOCH":"14240","PERIAPSIS":"546.267","TLE_LINE1":"1 45774U 20038AW  23007.93094639  .00002280  00000-0  17198-3 0  9996","EPOCH":"2023-01-07T22:20:33.768096","INCLINATION":"53.0519","BSTAR":"0.00017198000000","LAUNCH_DATE":"2020-06-13","NORAD_CAT_ID":"45774","DECAY_DATE":null,"OBJECT_TYPE":"PAYLOAD","RCS_SIZE":"LARGE","SITE":"AFETR","MEAN_ANOMALY":"276.0186","SEMIMAJOR_AXIS":"6925.376","RA_OF_ASC_NODE":"349.5157","CENTER_NAME":"EARTH","GP_ID":"222420730","ELEMENT_SET_NO":"999","MEAN_MOTION":"15.06391132","COUNTRY_CODE":"US","PERIOD":"95.593","MEAN_MOTION_DDOT":"0.0000000000000","TIME_SYSTEM":"UTC","OBJECT_NAME":"STARLINK-1485"},{"CENTER_NAME":"EARTH","GP_ID":"222421480","SEMIMAJOR_AXIS":"6916.870","RA_OF_ASC_NODE":"349.9582","MEAN_ANOMALY":"328.6581","SITE":"AFETR","RCS_SIZE":"LARGE","OBJECT_TYPE":"PAYLOAD","LAUNCH_DATE":"2020-06-13","NORAD_CAT_ID":"45775","DECAY_DATE":null,"OBJECT_NAME":"STARLINK-1488","PERIOD":"95.417","MEAN_MOTION_DDOT":"0.0000000000000","TIME_SYSTEM":"UTC","COUNTRY_CODE":"US","ELEMENT_SET_NO":"999","MEAN_MOTION":"15.09170507","EPOCH":"2023-01-07T15:53:51.264960","APOAPSIS":"539.506","REF_FRAME":"TEME","REV_AT_EPOCH":"14238","PERIAPSIS":"537.965","TLE_LINE1":"1 45775U 20038AX  23007.66239890  .00027318  00000-0  17122-2 0  9992","OBJECT_ID":"2020-038AX","MEAN_ELEMENT_THEORY":"SGP4","EPHEMERIS_TYPE":"0","ARG_OF_PERICENTER":"31.4475","CLASSIFICATION_TYPE":"U","TLE_LINE2":"2 45775  53.0535 349.9582 0001114  31.4475 328.6581 15.09170507142388","FILE":"3735488","ECCENTRICITY":"0.00011140","MEAN_MOTION_DOT":"0.00027318","BSTAR":"0.00171220000000","INCLINATION":"53.0535"},{"RCS_SIZE":"LARGE","MEAN_ANOMALY":"325.9854","SITE":"AFETR","SEMIMAJOR_AXIS":"6925.377","RA_OF_ASC_NODE":"349.4685","CENTER_NAME":"EARTH","GP_ID":"222421730","NORAD_CAT_ID":"45776","LAUNCH_DATE":"2020-06-13","DECAY_DATE":null,"OBJECT_TYPE":"PAYLOAD","OBJECT_NAME":"STARLINK-1489","ELEMENT_SET_NO":"999","MEAN_MOTION":"15.06390843","COUNTRY_CODE":"US","PERIOD":"95.593","MEAN_MOTION_DDOT":"0.0000000000000","TIME_SYSTEM":"UTC","EPHEMERIS_TYPE":"0","OBJECT_ID":"2020-038AY","MEAN_ELEMENT_THEORY":"SGP4","REF_FRAME":"TEME","APOAPSIS":"548.713","REV_AT_EPOCH":"14241","TLE_LINE1":"1 45776U 20038AY  23007.94200410 -.00000080  00000-0  13528-4 0  9996","PERIAPSIS":"545.770","EPOCH":"2023-01-07T22:36:29.154240","ECCENTRICITY":"0.00021250","MEAN_MOTION_DOT":"-0.00000080","TLE_LINE2":"2 45776  53.0564 349.4685 0002125  34.1271 325.9854 15.06390843142418","FILE":"3735488","CLASSIFICATION_TYPE":"U","ARG_OF_PERICENTER":"34.1271","BSTAR":"0.00001352800000","INCLINATION":"53.0564"},{"OBJECT_TYPE":"PAYLOAD","LAUNCH_DATE":"2020-06-13","NORAD_CAT_ID":"45777","DECAY_DATE":null,"GP_ID":"222387734","CENTER_NAME":"EARTH","SEMIMAJOR_AXIS":"6924.515","RA_OF_ASC_NODE":"352.7522","MEAN_ANOMALY":"304.3034","SITE":"AFETR","RCS_SIZE":"LARGE","PERIOD":"95.575","TIME_SYSTEM":"UTC","MEAN_MOTION_DDOT":"0.0000000000000","COUNTRY_CODE":"US","ELEMENT_SET_NO":"999","MEAN_MOTION":"15.06671934","OBJECT_NAME":"STARLINK-1490","ARG_OF_PERICENTER":"55.8242","CLASSIFICATION_TYPE":"U","TLE_LINE2":"2 45777  53.0533 352.7522 0003032  55.8242 304.3034 15.06671934142300","FILE":"3735161","MEAN_MOTION_DOT":"0.00023251","ECCENTRICITY":"0.00030320","EPOCH":"2023-01-07T04:59:26.405664","APOAPSIS":"548.480","REF_FRAME":"TEME","REV_AT_EPOCH":"14230","PERIAPSIS":"544.281","TLE_LINE1":"1 45777U 20038AZ  23007.20794451  .00023251  00000-0  15631-2 0  9998","MEAN_ELEMENT_THEORY":"SGP4","OBJECT_ID":"2020-038AZ","EPHEMERIS_TYPE":"0","INCLINATION":"53.0533","BSTAR":"0.00156310000000"},{"CENTER_NAME":"EARTH","GP_ID":"222420230","RA_OF_ASC_NODE":"349.5575","SEMIMAJOR_AXIS":"6925.401","MEAN_ANOMALY":"316.7603","SITE":"AFETR","RCS_SIZE":"LARGE","OBJECT_TYPE":"PAYLOAD","LAUNCH_DATE":"2020-06-13","NORAD_CAT_ID":"45778","DECAY_DATE":null,"OBJECT_NAME":"STARLINK-1491","PERIOD":"95.593","TIME_SYSTEM":"UTC","MEAN_MOTION_DDOT":"0.0000000000000","COUNTRY_CODE":"US","ELEMENT_SET_NO":"999","MEAN_MOTION":"15.06382795","EPOCH":"2023-01-07T22:04:38.649792","APOAPSIS":"548.426","REF_FRAME":"TEME","REV_AT_EPOCH":"14239","TLE_LINE1":"1 45778U 20038BA  23007.91989178 -.00002674  00000-0 -16076-3 0  9992","PERIAPSIS":"546.106","MEAN_ELEMENT_THEORY":"SGP4","OBJECT_ID":"2020-038BA","EPHEMERIS_TYPE":"0","ARG_OF_PERICENTER":"43.3517","CLASSIFICATION_TYPE":"U","TLE_LINE2":"2 45778  53.0560 349.5575 0001675  43.3517 316.7603 15.06382795142393","FILE":"3735488","ECCENTRICITY":"0.00016750","MEAN_MOTION_DOT":"-0.00002674","BSTAR":"-0.00016076000000","INCLINATION":"53.0560"},{"CLASSIFICATION_TYPE":"U","ARG_OF_PERICENTER":"56.0766","MEAN_MOTION_DOT":"0.00036704","ECCENTRICITY":"0.00021090","TLE_LINE2":"2 45779  53.0557 346.9304 0002109  56.0766 304.0425 15.12242853142435","FILE":"3735488","APOAPSIS":"530.821","REV_AT_EPOCH":"14243","REF_FRAME":"TEME","PERIAPSIS":"527.907","TLE_LINE1":"1 45779U 20038BB  23007.93542093  .00036704  00000-0  21053-2 0  9995","EPOCH":"2023-01-07T22:27:00.368352","EPHEMERIS_TYPE":"0","OBJECT_ID":"2020-038BB","MEAN_ELEMENT_THEORY":"SGP4","INCLINATION":"53.0557","BSTAR":"0.00210530000000","OBJECT_TYPE":"PAYLOAD","LAUNCH_DATE":"2020-06-13","NORAD_CAT_ID":"45779","DECAY_DATE":null,"SEMIMAJOR_AXIS":"6907.499","RA_OF_ASC_NODE":"346.9304","GP_ID":"222420980","CENTER_NAME":"EARTH","RCS_SIZE":"LARGE","SITE":"AFETR","MEAN_ANOMALY":"304.0425","COUNTRY_CODE":"US","PERIOD":"95.223","TIME_SYSTEM":"UTC","MEAN_MOTION_DDOT":"0.0000000000000","ELEMENT_SET_NO":"999","MEAN_MOTION":"15.12242853","OBJECT_NAME":"STARLINK-1492"},{"INCLINATION":"53.0569","BSTAR":"-0.00008976000000","CLASSIFICATION_TYPE":"U","ARG_OF_PERICENTER":"51.7428","MEAN_MOTION_DOT":"-0.00001618","ECCENTRICITY":"0.00017920","FILE":"3735488","TLE_LINE2":"2 45780  53.0569 350.7073 0001792  51.7428 308.3722 15.06390358142355","PERIAPSIS":"546.002","TLE_LINE1":"1 45780U 20038BC  23007.66187763 -.00001618  00000-0 -89760-4 0  9995","REV_AT_EPOCH":"14235","APOAPSIS":"548.484","REF_FRAME":"TEME","EPOCH":"2023-01-07T15:53:06.227232","EPHEMERIS_TYPE":"0","OBJECT_ID":"2020-038BC","MEAN_ELEMENT_THEORY":"SGP4","COUNTRY_CODE":"US","TIME_SYSTEM":"UTC","MEAN_MOTION_DDOT":"0.0000000000000","PERIOD":"95.593","MEAN_MOTION":"15.06390358","ELEMENT_SET_NO":"999","OBJECT_NAME":"STARLINK-1496","OBJECT_TYPE":"PAYLOAD","DECAY_DATE":null,"LAUNCH_DATE":"2020-06-13","NORAD_CAT_ID":"45780","RA_OF_ASC_NODE":"350.7073","SEMIMAJOR_AXIS":"6925.378","GP_ID":"222421231","CENTER_NAME":"EARTH","RCS_SIZE":"LARGE","SITE":"AFETR","MEAN_ANOMALY":"308.3722"},{"BSTAR":"0.00056214000000","INCLINATION":"53.0547","EPHEMERIS_TYPE":"0","MEAN_ELEMENT_THEORY":"SGP4","OBJECT_ID":"2020-038BD","APOAPSIS":"548.591","REF_FRAME":"TEME","REV_AT_EPOCH":"14239","TLE_LINE1":"1 45781U 20038BD  23007.88672182  .00008102  00000-0  56214-3 0  9994","PERIAPSIS":"545.825","EPOCH":"2023-01-07T21:16:52.765248","ECCENTRICITY":"0.00019970","MEAN_MOTION_DOT":"0.00008102","TLE_LINE2":"2 45781  53.0547 349.7194 0001997  42.9484 317.1660 15.06401682142391","FILE":"3735488","CLASSIFICATION_TYPE":"U","ARG_OF_PERICENTER":"42.9484","OBJECT_NAME":"STARLINK-1497","ELEMENT_SET_NO":"999","MEAN_MOTION":"15.06401682","COUNTRY_CODE":"US","PERIOD":"95.592","MEAN_MOTION_DDOT":"0.0000000000000","TIME_SYSTEM":"UTC","RCS_SIZE":"LARGE","SITE":"AFETR","MEAN_ANOMALY":"317.1660","SEMIMAJOR_AXIS":"6925.343","RA_OF_ASC_NODE":"349.7194","GP_ID":"222419980","CENTER_NAME":"EARTH","LAUNCH_DATE":"2020-06-13","NORAD_CAT_ID":"45781","DECAY_DATE":null,"OBJECT_TYPE":"PAYLOAD"},{"BSTAR":"0.00177190000000","INCLINATION":"53.0537","EPOCH":"2023-01-07T22:00:53.710848","APOAPSIS":"530.894","REF_FRAME":"TEME","REV_AT_EPOCH":"14245","TLE_LINE1":"1 45782U 20038BE  23007.91728832  .00030735  00000-0  17719-2 0  9996","PERIAPSIS":"528.420","MEAN_ELEMENT_THEORY":"SGP4","OBJECT_ID":"2020-038BE","EPHEMERIS_TYPE":"0","ARG_OF_PERICENTER":"61.9090","CLASSIFICATION_TYPE":"U","TLE_LINE2":"2 45782  53.0537 346.4978 0001791  61.9090 298.2082 15.12146548142459","FILE":"3735488","MEAN_MOTION_DOT":"0.00030735","ECCENTRICITY":"0.00017910","OBJECT_NAME":"STARLINK-1498","PERIOD":"95.229","MEAN_MOTION_DDOT":"0.0000000000000","TIME_SYSTEM":"UTC","COUNTRY_CODE":"US","ELEMENT_SET_NO":"999","MEAN_MOTION":"15.12146548","GP_ID":"222420731","CENTER_NAME":"EARTH","SEMIMAJOR_AXIS":"6907.792","RA_OF_ASC_NODE":"346.4978","SITE":"AFETR","MEAN_ANOMALY":"298.2082","RCS_SIZE":"LARGE","OBJECT_TYPE":"PAYLOAD","NORAD_CAT_ID":"45782","LAUNCH_DATE":"2020-06-13","DECAY_DATE":null},{"LAUNCH_DATE":"2020-06-13","NORAD_CAT_ID":"45783","DECAY_DATE":null,"OBJECT_TYPE":"PAYLOAD","SITE":"AFETR","MEAN_ANOMALY":"335.7616","RCS_SIZE":"LARGE","CENTER_NAME":"EARTH","GP_ID":"222421481","RA_OF_ASC_NODE":"352.1159","SEMIMAJOR_AXIS":"6925.342","ELEMENT_SET_NO":"999","MEAN_MOTION":"15.06402224","PERIOD":"95.592","TIME_SYSTEM":"UTC","MEAN_MOTION_DDOT":"0.0000000000000","COUNTRY_CODE":"US","OBJECT_NAME":"STARLINK-1505","TLE_LINE2":"2 45783  53.0570 352.1159 0002943  24.3512 335.7616 15.06402224142329","FILE":"3735488","MEAN_MOTION_DOT":"-0.00000639","ECCENTRICITY":"0.00029430","ARG_OF_PERICENTER":"24.3512","CLASSIFICATION_TYPE":"U","MEAN_ELEMENT_THEORY":"SGP4","OBJECT_ID":"2020-038BF","EPHEMERIS_TYPE":"0","EPOCH":"2023-01-07T08:27:14.806944","REF_FRAME":"TEME","APOAPSIS":"549.245","REV_AT_EPOCH":"14232","TLE_LINE1":"1 45783U 20038BF  23007.35225471 -.00000639  00000-0 -23950-4 0  9994","PERIAPSIS":"545.169","INCLINATION":"53.0570","BSTAR":"-0.00002395000000"}];
